# From MPC118841
C/2018 L2 (ATLAS),e,67.3705,243.0227,56.2817,260.8097,0.0002340,0.99343155,0.0000,12/02.6851/2018,2000,g 10.0,4.0
# From MPC114603
P/2018 L4 (PANSTARRS),e,26.6253,145.1529,140.5817,4.941509,0.0897253,0.66004498,92.6125,05/29.0/2021,2000,g 17.5,4.0
# From MPC119996
P/2018 L5 (Leonard),e,2.2081,219.1109,93.8361,3.628027,0.1426258,0.36474116,159.7092,05/29.0/2021,2000,g 14.5,4.0
# From MPC117070
C/2018 M1 (Catalina),e,37.2968,339.4122,14.1736,21.37925,0.0099705,0.93907570,10.5049,05/29.0/2021,2000,g 15.5,4.0
# From MPC112393
C/2018 N1 (NEOWISE),e,159.4422,292.4522,354.6459,358.0709,0.0001455,0.99634047,0.0000,08/01.9965/2018,2000,g 15.5,4.0
# From MPC119996
C/2018 N2 (ASASSN),h,11/10.9865/2019,77.5308,25.2376,24.4095,1.000155,3.124942,2000,6.0,4.0
# From MPC114603
C/2018 O1 (ATLAS),e,154.0356,87.6611,162.6077,27.95007,0.0066701,0.94416002,6.6790,05/29.0/2021,2000,g 17.0,4.0
# From MPC114603
P/2018 P3 (PANSTARRS),e,8.9097,59.1770,305.8849,3.005948,0.1891176,0.41661777,181.9361,05/29.0/2021,2000,g 14.5,4.0
# From MPC114603
P/2018 P4 (PANSTARRS),e,23.1080,353.0696,8.2487,6.673774,0.0571672,0.45051574,53.3290,05/29.0/2021,2000,g 12.0,4.0
# From MPC118094
C/2018 P5 (PANSTARRS),e,7.2518,216.2365,131.7582,12.80701,0.0215047,0.64251663,17.6713,05/29.0/2021,2000,g 11.0,4.0
# From MPC118841
C/2018 R3 (Lemmon),e,69.7294,324.6414,112.8158,1624,0.0000151,0.99920672,0.0000,06/07.2715/2019,2000,g  9.5,4.0
# From MPC112393
C/2018 R4 (Fuls),e,11.6828,298.4442,345.2951,333.2559,0.0001620,0.99485334,0.0000,03/03.5720/2018,2000,g 14.0,4.0
# From MPC114603
C/2018 R5 (Lemmon),e,103.7482,171.1233,178.0648,22.78950,0.0090595,0.84097670,7.8816,05/29.0/2021,2000,g 11.5,4.0
# From MPC119996
C/2018 U1 (Lemmon),h,11/02.9429/2021,108.2965,75.4809,180.4500,1.001309,4.992890,2000,5.0,4.0
# From MPC114604
C/2018 V1 (Machholz-Fujikawa-Iwamoto),h,12/03.1974/2018,144.0545,128.8819,88.8570,1.000339,0.386654,2000,12.0,4.0
# From MPC115884
C/2018 V2 (ATLAS),e,159.1679,357.0857,318.9470,25.09831,0.0078386,0.90127195,7.1709,05/29.0/2021,2000,g 15.0,4.0
# From MPC114604
P/2018 VN2 (Leonard),e,18.2505,226.5019,138.7527,4.064535,0.1202784,0.47858944,130.8788,05/29.0/2021,2000,g 15.0,4.0
# From MPC117070
A/2018 V3,e,164.9780,308.6564,3.5341,122.6632,0.0007255,0.98906981,0.0000,09/08.6928/2019,2000,g 15.7,2.0
# From MPC114604
C/2018 V4 (Africano),e,69.0042,78.3568,359.9361,205.0069,0.0003358,0.98440684,0.0000,03/01.3918/2019,2000,g 12.5,4.0
# From MPC114604
P/2018 V5 (Trujillo-Sheppard),e,10.5864,171.2877,260.6830,8.954259,0.0367841,0.47471315,35.6513,05/29.0/2021,2000,g 12.5,4.0
# From MPC115884
C/2018 W1 (Catalina),e,83.2779,233.5992,251.2454,21.69737,0.0097520,0.93728973,7.2975,05/29.0/2021,2000,g 15.7,2.0
# From MPC119996
C/2018 W2 (Africano),h,09/05.6040/2019,116.6186,181.8425,157.9785,1.000400,1.455478,2000,9.5,4.0
# From MPC119996
C/2018 X2 (Fitzsimmons),e,23.0694,340.8292,162.0459,145.9363,0.0005591,0.98542933,0.0000,07/08.3555/2019,2000,g 12.0,4.0
# From MPC114604
C/2018 X3 (PANSTARRS),e,43.3736,78.8985,359.7467,12.37426,0.0226425,0.78215797,19.9352,05/29.0/2021,2000,g 14.5,4.0
# From MPC118842
C/2018 Y1 (Iwamoto),e,160.3991,147.5134,358.0088,139.4994,0.0005982,0.99079096,0.0000,02/06.9565/2019,2000,g 11.5,4.0
# From MPC114605
P/2018 Y2 (Africano),e,11.6825,297.2626,162.3297,7.460242,0.0483698,0.47862178,42.4879,05/29.0/2021,2000,g 11.5,4.0
# From MPC114605
P/2019 A1 (PANSTARRS),e,13.7442,312.3022,150.7712,5.121887,0.0850274,0.56834537,81.7446,05/29.0/2021,2000,g 16.0,4.0
# From MPC114605
P/2019 A2 (ATLAS),e,14.8607,139.4700,324.0254,5.721396,0.0720197,0.38135674,66.3016,05/29.0/2021,2000,g 10.5,4.0
# From MPC114605
P/2019 A3 (PANSTARRS),e,15.3686,31.2972,325.5057,3.146584,0.1765815,0.26566584,181.9721,05/29.0/2021,2000,g 16.0,4.0
# From MPC114605
P/2019 A4 (PANSTARRS),e,13.3180,119.2998,341.8868,2.615967,0.2329463,0.08795513,211.2071,05/29.0/2021,2000,g 15.0,4.0
# From MPC118842
C/2019 A5 (PANSTARRS),e,67.5591,146.6277,355.9496,21.57051,0.0098381,0.70691165,7.0901,05/29.0/2021,2000,g  9.5,4.0
# From MPC114605
P/2019 A6 (Lemmon-PANSTARRS),e,33.2326,280.2616,156.1986,5.361806,0.0793848,0.63905435,79.6904,05/29.0/2021,2000,g 16.0,4.0
# From MPC114605
P/2019 A7 (PANSTARRS),e,17.7748,280.5219,119.2382,3.185595,0.1733478,0.16118948,214.6142,05/29.0/2021,2000,g 13.5,4.0
# From MPC115884
P/2019 A8 (PANSTARRS),e,3.4241,128.4063,23.8583,3.314514,0.1633331,0.49194248,149.7665,05/29.0/2021,2000,g 16.0,4.0
# From MPC118842
C/2019 A9 (PANSTARRS),e,84.1729,278.3839,237.9506,39.55439,0.0039620,0.96382655,2.6649,05/29.0/2021,2000,g 15.0,4.0
# From MPC114606
C/2019 B1 (Africano),e,123.3645,290.4338,174.8351,144.0012,0.0005704,0.98891217,0.0000,03/19.6420/2019,2000,g 16.0,4.0
# From MPC115885
P/2019 B2 (Groeller),e,16.8743,176.1124,359.7352,3.871559,0.1293824,0.37267896,93.0578,05/29.0/2021,2000,g 14.5,4.0
# From MPC115885
C/2019 B3 (PANSTARRS),h,01/20.1150/2021,66.5388,358.4340,263.9125,1.002155,6.823689,2000,5.5,4.0
# From MPEC 2020-AA5
C/2019 C1,e,36.0294,212.3865,319.1823,725.4529,0.0000504,0.99092855,0.0000,05/05.4801/2020,2000,g 10.0,4.0
# From MPC118842
C/2019 D1 (Flewelling),e,34.0714,231.7119,70.5432,142.1773,0.0005814,0.98889082,0.0000,05/11.8662/2019,2000,g 13.0,4.0
# From MPC119997
C/2019 E3 (ATLAS),h,11/12.9830/2023,84.2950,347.2475,280.6232,1.003390,10.314498,2000,2.5,4.0
# From MPC119997
C/2019 F1 (ATLAS-Africano),h,06/22.8274/2021,54.1749,38.7250,251.1293,1.003752,3.595551,2000,5.5,4.0
# From MPC119997
C/2019 F2 (ATLAS),e,19.2130,175.6224,11.4281,16.73186,0.0144008,0.86607524,9.0430,05/29.0/2021,2000,g 12.0,4.0
# From MPEC 2020-AA5
A/2019 G2,e,159.2060,208.1511,82.6253,632.8431,0.0000619,0.99638027,0.0000,12/09.9404/2019,2000,g 16.5,2.0
# From MPC118094
A/2019 G4,h,09/16.1024/2018,138.3860,130.4642,287.8793,1.001767,5.857715,2000,13.0,2.0
# From MPC114607
P/2019 GG21 (PANSTARRS),e,6.0841,340.5724,208.5629,7.474643,0.0482301,0.47283349,36.1236,05/29.0/2021,2000,g 12.0,4.0
# From MPC115885
C/2019 H1 (NEOWISE),e,104.5623,269.2032,19.3328,237.7213,0.0002689,0.99223404,0.0000,04/27.8371/2019,2000,g 15.5,4.0
# From MPC118842
C/2019 J1 (Lemmon),e,24.5503,98.0951,167.7907,69.51983,0.0017004,0.96432269,1.3279,05/29.0/2021,2000,g 12.0,4.0
# From MPC115885
C/2019 J2 (Palomar),e,105.1625,25.4884,98.7178,679.8483,0.0000556,0.99745938,0.0000,07/19.7155/2019,2000,g 13.0,4.0
# From MPC117071
C/2019 J3 (ATLAS),h,08/02.0079/2019,131.4085,270.5327,16.5975,1.000394,2.374497,2000,13.5,4.0
# From MPC117071
C/2019 JU6 (ATLAS),e,148.3104,21.7501,94.9234,344.8394,0.0001539,0.99406588,0.0000,05/31.9372/2019,2000,g 14.5,4.0
# From MPC119997
C/2019 K1 (ATLAS),h,02/12.9945/2020,87.1342,73.3766,265.7133,1.000062,2.012648,2000,10.0,4.0
# From MPC119997
C/2019 K4 (Ye),e,105.3003,180.1580,139.7759,1417,0.0000185,0.99840476,0.0000,06/16.2297/2019,2000,g 12.5,4.0
# From MPC119997
C/2019 K5 (Young),e,15.3161,177.1513,174.9929,159.5518,0.0004890,0.98724031,0.0000,06/22.9206/2019,2000,g 13.0,4.0
# From MPC134066
C/2019 K6 (PANSTARRS),e,132.3805,42.9493,187.6351,1813,0.0000128,0.99783347,0.0000,05/20.2683/2020,2000,g 11.5,4.0
# From MPC118095
C/2019 K7 (Smith),e,103.5400,307.9300,27.3230,27998,0.0000002,0.99984015,0.0000,06/17.0595/2020,2000,g  6.2,4.0
# From MPC119997
C/2019 K8 (ATLAS),e,93.2167,291.0454,85.3736,2612,0.0000074,0.99877674,0.0000,07/21.4440/2019,2000,g 11.5,4.0
# From MPC118095
C/2019 L1 (PANSTARRS),e,9.9916,254.4164,49.9715,9.838095,0.0319402,0.70603271,20.9724,05/29.0/2021,2000,g 13.5,4.0
# From MPC115886
C/2019 L2 (NEOWISE),e,152.1881,12.5726,18.7549,24.85647,0.0079533,0.93477772,6.2692,05/29.0/2021,2000,g 16.0,4.0
# From MPC119997
C/2019 L3 (ATLAS),h,01/09.6251/2022,48.3652,290.7876,171.6220,1.001263,3.554215,2000,4.5,4.0
# From MPC118095
C/2019 LB7 (Kleyna),e,164.2912,3.9027,336.4793,34.65316,0.0048316,0.92833385,3.8373,05/29.0/2021,2000,g 17.0,4.0
# From MPEC 2021-J28
P/2019 M2 (ATLAS),e,12.2818,307.5981,332.5748,3.027066,0.1871420,0.64822755,132.1940,05/29.0/2021,2000,g 21.2,4.0
# From MPC118095
C/2019 M3 (ATLAS),h,01/02.4407/2019,99.4746,154.9045,87.9111,1.000836,2.418875,2000,12.2,4.0
# From MPEC 2021-J28
C/2019 N1 (ATLAS),e,82.4283,13.5745,193.4460,10847,0.0000009,0.99984285,0.0000,12/01.8021/2020,2000,g  7.5,4.0
# From MPEC 2021-J28
A/2019 O2,e,93.2884,48.3069,129.6637,57.34412,0.0022697,0.83114634,358.4593,05/29.0/2021,2000,g  9.5,2.0
# From MPEC 2021-J28
C/2019 O3 (Palomar),h,03/08.1751/2021,89.8158,300.3821,60.0602,1.002546,8.819486,2000,3.5,4.0
# From MPC117072
A/2019 O4,e,115.0886,354.9139,61.8423,32.90569,0.0052215,0.88922141,2.4744,05/29.0/2021,2000,g 15.5,2.0
# From MPEC 2021-J28
C/2019 Q1 (Lemmon),h,07/20.2894/2020,155.7270,42.4372,56.0896,1.001355,4.998186,2000,8.5,4.0
# From MPC117072
A/2019 Q2,e,159.0223,188.0328,176.2976,57.16658,0.0022803,0.97800482,0.0000,07/22.2189/2019,2000,g 18.0,2.0
# From MPEC 2021-J28
C/2019 Q3 (PANSTARRS),h,08/20.6853/2018,65.5154,151.3236,152.6423,1.004072,7.252833,2000,8.5,4.0
# From MPC117072
P/2019 S2 (PANSTARRS),e,10.4724,93.1327,216.9249,4.737287,0.0955893,0.20672137,79.0599,05/29.0/2021,2000,g 13.5,4.0
# From MPEC 2021-J28
P/2019 S3 (PANSTARRS),e,8.6943,150.1599,212.9872,3.414957,0.1561803,0.47101444,100.2224,05/29.0/2021,2000,g 18.3,4.0
# From MPEC 2021-J28
C/2019 S4 (Lemmon),e,92.0277,63.1627,71.3654,233.6387,0.0002760,0.98526737,0.0000,04/07.9464/2020,2000,g 11.0,4.0
# From MPEC 2021-J28
A/2019 T1,e,120.8700,6.9524,91.0418,38.27365,0.0041625,0.88813058,0.5605,05/29.0/2021,2000,g 13.0,2.0
# From MPC134066
C/2019 T2 (Lemmon),e,111.4892,155.6431,239.3868,1889,0.0000120,0.99859921,0.0000,04/22.2762/2021,2000,g  9.0,4.0
# From MPEC 2021-J28
C/2019 T3 (ATLAS),e,121.8623,139.5207,112.2856,3166,0.0000055,0.99812148,0.0000,03/02.7953/2021,2000,g  6.8,4.0
# From MPEC 2021-J28
C/2019 T4 (ATLAS),e,53.6206,199.9479,351.2149,1028,0.0000299,0.99587481,0.0000,06/09.2496/2022,2000,g  5.0,4.0
# From MPEC 2021-J28
